{
    "links": {
        "self": "http://www.neowsapp.com/rest/v1/neo/3404765?api_key=iIulBulltgU6a56xZRHN4H3l9WmuAYTsLGpBGhQ2"
    },
    "id": "3404765",
    "neo_reference_id": "3404765",
    "name": "(2008 EH1)",
    "designation": "2008 EH1",
    "nasa_jpl_url": "http://ssd.jpl.nasa.gov/sbdb.cgi?sstr=3404765",
    "absolute_magnitude_h": 23.1,
    "estimated_diameter": {
        "kilometers": {
            "estimated_diameter_min": 0.063760979,
            "estimated_diameter_max": 0.1425738833
        },
        "meters": {
            "estimated_diameter_min": 63.7609789875,
            "estimated_diameter_max": 142.5738833281
        },
        "miles": {
            "estimated_diameter_min": 0.0396192233,
            "estimated_diameter_max": 0.0885912765
        },
        "feet": {
            "estimated_diameter_min": 209.1895703015,
            "estimated_diameter_max": 467.7620993781
        }
    },
    "is_potentially_hazardous_asteroid": false,
    "close_approach_data": [
        {
            "close_approach_date": "2008-03-07",
            "close_approach_date_full": "2008-Mar-07 15:19",
            "epoch_date_close_approach": 1204903140000,
            "relative_velocity": {
                "kilometers_per_second": "10.6620388006",
                "kilometers_per_hour": "38383.3396822986",
                "miles_per_hour": "23849.9145931483"
            },
            "miss_distance": {
                "astronomical": "0.1915681251",
                "lunar": "74.5200006639",
                "kilometers": "28658183.474853537",
                "miles": "17807369.4725793306"
            },
            "orbiting_body": "Earth"
        }
    ],
    "orbital_data": {
        "orbit_id": "6",
        "orbit_determination_date": "2017-04-06 09:04:10",
        "first_observation_date": "2008-03-01",
        "last_observation_date": "2008-03-04",
        "data_arc_in_days": 3,
        "observations_used": 12,
        "orbit_uncertainty": "9",
        "minimum_orbit_intersection": ".132208",
        "jupiter_tisserand_invariant": "4.676",
        "epoch_osculation": "2454528.5",
        "eccentricity": ".2287046463212043",
        "semi_major_axis": "1.394512330715364",
        "inclination": "20.35301552959393",
        "ascending_node_longitude": "341.0124044838104",
        "orbital_period": "601.4949217271984",
        "perihelion_distance": "1.075580881328548",
        "perihelion_argument": "223.8776948405045",
        "aphelion_distance": "1.713443780102179",
        "perihelion_time": "2454580.252978251655",
        "mean_anomaly": "329.0253874179079",
        "mean_motion": ".5985087936673789",
        "equinox": "J2000",
        "orbit_class": {
            "orbit_class_type": "AMO",
            "orbit_class_description": "Near-Earth asteroid orbits similar to that of 1221 Amor",
            "orbit_class_range": "1.017 AU < q (perihelion) < 1.3 AU"
        }
    },
    "is_sentry_object": false
}